STARLINK-32619          
1 62074U 24217T   26074.93822695  .00034778  00000+0  11814-2 0  9993
2 62074  53.1581 165.1827 0000973  78.2242 281.8868 15.30185498 74374
STARLINK-33566          
1 62100U 24220N   26075.57322438  .00026806  00000+0  98029-3 0  9995
2 62100  42.9991 151.9588 0000978 258.0409 102.0333 15.27573700 74419
STARLINK-33562          
1 62102U 24220Q   26075.62911560  .00022354  00000+0  81895-3 0  9990
2 62102  43.0001 166.2579 0000307 260.2425  99.8392 15.27597279 74081
STARLINK-33554          
1 62103U 24220R   26075.61369300  .00015600  00000+0  57494-3 0  9993
2 62103  43.0010 166.1392 0001237 282.2807  77.7906 15.27595249 74019
STARLINK-33553          
1 62108U 24220W   26075.57014970  .00013087  00000+0  48411-3 0  9999
2 62108  43.0035 166.6745 0001498 265.6483  94.4197 15.27590085 74248
STARLINK-33556          
1 62109U 24220X   26075.62140308  .00027900  00000+0  10189-2 0  9990
2 62109  43.0040 166.1951 0001652 277.3143  82.7521 15.27600866 74277
STARLINK-32470          
1 62115U 24222B   26075.76843846  .00018926  00000+0  69533-3 0  9997
2 62115  43.0019  96.0327 0002089 256.1561 103.9059 15.27588425 73987
STARLINK-32502          
1 62116U 24222C   26074.48253847  .00026987  00000+0  98574-3 0  9995
2 62116  43.0006 103.5798 0001567 271.6086  88.4586 15.27609705 73699
STARLINK-32521          
1 62117U 24222D   26074.40348723  .00031150  00000+0  11356-2 0  9996
2 62117  43.0013 100.2711 0000999 294.3740  65.7007 15.27613794 73660
STARLINK-32525          
1 62121U 24222H   26075.76072582  .00015074  00000+0  55627-3 0  9995
2 62121  43.0010  95.9724 0001439 269.5648  90.5039 15.27573381 73845
STARLINK-32568          
1 62128U 24222Q   26075.53259020  .00025915  00000+0  94756-3 0  9992
2 62128  42.9986  97.6950 0000498 324.6952  35.3867 15.27593005 73534
STARLINK-32550          
1 62131U 24222T   26074.36204629  .00026949  00000+0  98443-3 0  9996
2 62131  42.9960 104.3879 0001169 251.6534 108.4191 15.27607456 73669
STARLINK-32485          
1 62143U 24224E   26075.81909483  .00017806  00000+0  65597-3 0  9998
2 62143  43.0010 121.0197 0000604 313.2811  46.7990 15.27531291 73108
