
    {
      "objectName": "STARLINK-32619",
      "objectId": "2024-217T",
      "noradId": 62074,
      "epochUtc": "2026-03-15T22:31:02.808480Z",
      "meanMotionRevPerDay": 15.30185498,
      "eccentricity": 0.00009734,
      "inclinationDeg": 53.1581,
      "raanDeg": 165.1827,
      "argPerigeeDeg": 78.2242,
      "meanAnomalyDeg": 281.8868,
      "bstar": 0.0011813779,
      "meanMotionDot": 0.00034778,
      "meanMotionDdot": 0,
      "elementSetNo": 999,
      "revAtEpoch": 7437
    },
    {
      "objectName": "STARLINK-33566",
      "objectId": "2024-220N",
      "noradId": 62100,
      "epochUtc": "2026-03-16T13:45:26.586432Z",
      "meanMotionRevPerDay": 15.275737,
      "eccentricity": 0.0000978,
      "inclinationDeg": 42.9991,
      "raanDeg": 151.9588,
      "argPerigeeDeg": 258.0409,
      "meanAnomalyDeg": 102.0333,
      "bstar": 0.00098029,
      "meanMotionDot": 0.00026806,
      "meanMotionDdot": 0,
      "elementSetNo": 999,
      "revAtEpoch": 7441
    },
    {
      "objectName": "STARLINK-33562",
      "objectId": "2024-220Q",
      "noradId": 62102,
      "epochUtc": "2026-03-16T15:05:55.587840Z",
      "meanMotionRevPerDay": 15.27597279,
      "eccentricity": 0.0000307,
      "inclinationDeg": 43.0001,
      "raanDeg": 166.2579,
      "argPerigeeDeg": 260.2425,
      "meanAnomalyDeg": 99.8392,
      "bstar": 0.00081895,
      "meanMotionDot": 0.00022354,
      "meanMotionDdot": 0,
      "elementSetNo": 999,
      "revAtEpoch": 7408
    },
    {
      "objectName": "STARLINK-33554",
      "objectId": "2024-220R",
      "noradId": 62103,
      "epochUtc": "2026-03-16T14:43:43.075200Z",
      "meanMotionRevPerDay": 15.27595249,
      "eccentricity": 0.0001237,
      "inclinationDeg": 43.001,
      "raanDeg": 166.1392,
      "argPerigeeDeg": 282.2807,
      "meanAnomalyDeg": 77.7906,
      "bstar": 0.00057494,
      "meanMotionDot": 0.000156,
      "meanMotionDdot": 0,
      "elementSetNo": 999,
      "revAtEpoch": 7401
    },
    {
      "objectName": "STARLINK-33553",
      "objectId": "2024-220W",
      "noradId": 62108,
      "epochUtc": "2026-03-16T13:41:00.934080Z",
      "meanMotionRevPerDay": 15.27590085,
      "eccentricity": 0.0001498,
      "inclinationDeg": 43.0035,
      "raanDeg": 166.6745,
      "argPerigeeDeg": 265.6483,
      "meanAnomalyDeg": 94.4197,
      "bstar": 0.00048411,
      "meanMotionDot": 0.00013087,
      "meanMotionDdot": 0,
      "elementSetNo": 999,
      "revAtEpoch": 7424
    },
    {
      "objectName": "STARLINK-33556",
      "objectId": "2024-220X",
      "noradId": 62109,
      "epochUtc": "2026-03-16T14:54:49.226112Z",
      "meanMotionRevPerDay": 15.27600866,
      "eccentricity": 0.0001652,
      "inclinationDeg": 43.004,
      "raanDeg": 166.1951,
      "argPerigeeDeg": 277.3143,
      "meanAnomalyDeg": 82.7521,
      "bstar": 0.0010189,
      "meanMotionDot": 0.000279,
      "meanMotionDdot": 0,
      "elementSetNo": 999,
      "revAtEpoch": 7427
    },
    {
      "objectName": "STARLINK-32470",
      "objectId": "2024-222B",
      "noradId": 62115,
      "epochUtc": "2026-03-16T18:26:33.082944Z",
      "meanMotionRevPerDay": 15.27588425,
      "eccentricity": 0.0002089,
      "inclinationDeg": 43.0019,
      "raanDeg": 96.0327,
      "argPerigeeDeg": 256.1561,
      "meanAnomalyDeg": 103.9059,
      "bstar": 0.00069533,
      "meanMotionDot": 0.00018926,
      "meanMotionDdot": 0,
      "elementSetNo": 999,
      "revAtEpoch": 7398
    },
    {
      "objectName": "STARLINK-32502",
      "objectId": "2024-222C",
      "noradId": 62116,
      "epochUtc": "2026-03-15T11:34:51.323808Z",
      "meanMotionRevPerDay": 15.27609705,
      "eccentricity": 0.00015675,
      "inclinationDeg": 43.0006,
      "raanDeg": 103.5798,
      "argPerigeeDeg": 271.6086,
      "meanAnomalyDeg": 88.4586,
      "bstar": 0.00098573785,
      "meanMotionDot": 0.00026987,
      "meanMotionDdot": 0,
      "elementSetNo": 999,
      "revAtEpoch": 7369
    },
    {
      "objectName": "STARLINK-32521",
      "objectId": "2024-222D",
      "noradId": 62117,
      "epochUtc": "2026-03-15T09:41:01.296672Z",
      "meanMotionRevPerDay": 15.27613794,
      "eccentricity": 0.00009995,
      "inclinationDeg": 43.0013,
      "raanDeg": 100.2711,
      "argPerigeeDeg": 294.374,
      "meanAnomalyDeg": 65.7007,
      "bstar": 0.0011355504,
      "meanMotionDot": 0.0003115,
      "meanMotionDdot": 0,
      "elementSetNo": 999,
      "revAtEpoch": 7366
    },
    {
      "objectName": "STARLINK-32525",
      "objectId": "2024-222H",
      "noradId": 62121,
      "epochUtc": "2026-03-16T18:15:26.710848Z",
      "meanMotionRevPerDay": 15.27573381,
      "eccentricity": 0.0001439,
      "inclinationDeg": 43.001,
      "raanDeg": 95.9724,
      "argPerigeeDeg": 269.5648,
      "meanAnomalyDeg": 90.5039,
      "bstar": 0.00055627,
      "meanMotionDot": 0.00015074,
      "meanMotionDdot": 0,
      "elementSetNo": 999,
      "revAtEpoch": 7384
    },
    {
      "objectName": "STARLINK-32568",
      "objectId": "2024-222Q",
      "noradId": 62128,
      "epochUtc": "2026-03-16T12:46:55.793280Z",
      "meanMotionRevPerDay": 15.27593005,
      "eccentricity": 0.0000498,
      "inclinationDeg": 42.9986,
      "raanDeg": 97.695,
      "argPerigeeDeg": 324.6952,
      "meanAnomalyDeg": 35.3867,
      "bstar": 0.00094756,
      "meanMotionDot": 0.00025915,
      "meanMotionDdot": 0,
      "elementSetNo": 999,
      "revAtEpoch": 7353
    },
    {
      "objectName": "STARLINK-32550",
      "objectId": "2024-222T",
      "noradId": 62131,
      "epochUtc": "2026-03-15T08:41:20.799456Z",
      "meanMotionRevPerDay": 15.27607456,
      "eccentricity": 0.00011697,
      "inclinationDeg": 42.996,
      "raanDeg": 104.3879,
      "argPerigeeDeg": 251.6534,
      "meanAnomalyDeg": 108.4191,
      "bstar": 0.00098443035,
      "meanMotionDot": 0.00026949,
      "meanMotionDdot": 0,
      "elementSetNo": 999,
      "revAtEpoch": 7366
    },
    {
      "objectName": "STARLINK-32485",
      "objectId": "2024-224E",
      "noradId": 62143,
      "epochUtc": "2026-03-16T19:39:29.793312Z",
      "meanMotionRevPerDay": 15.27531291,
      "eccentricity": 0.0000604,
      "inclinationDeg": 43.001,
      "raanDeg": 121.0197,
      "argPerigeeDeg": 313.2811,
      "meanAnomalyDeg": 46.799,
      "bstar": 0.00065597,
      "meanMotionDot": 0.00017806,
      "meanMotionDdot": 0,
      "elementSetNo": 999,
      "revAtEpoch": 7310
    }